{
  "type": "FeatureCollection",
  "features": [
    {
      "type": "Feature",
      "properties": {
        "norad_id": 33376,
        "name": "GALAXY 19 (G-19)",
        "group": "intelsat",
        "lat": 0.03447364659470003,
        "lon": 68.80677908382283,
        "alt_km": 35797.1505789364,
        "timestamp": "2025-12-10T05:46:13.465255+00:00",
        "meta_object_name": "GALAXY 19 (G-19)",
        "meta_object_id": "2008-045A",
        "meta_epoch": "2025-12-09T13:06:40.336416",
        "meta_mean_motion": 1.00278002,
        "meta_eccentricity": 0.0003102,
        "meta_inclination": 0.0187,
        "meta_ra_of_asc_node": 316.6753,
        "meta_arg_of_pericenter": 305.1982,
        "meta_mean_anomaly": 276.3406,
        "meta_ephemeris_type": 0,
        "meta_classification_type": "U",
        "meta_norad_cat_id": 33376,
        "meta_element_set_no": 999,
        "meta_rev_at_epoch": 6300,
        "meta_bstar": 0,
        "meta_mean_motion_dot": -1.38e-06,
        "meta_mean_motion_ddot": 0,
        "tle_line1": "1 33376U 08045A   25343.54630019 -.00000138  00000+0  00000+0 0  9995",
        "tle_line2": "2 33376   0.0187 316.6753 0003102 305.1982 276.3406  1.00278002 63002"
      },
      "geometry": {
        "type": "Point",
        "coordinates": [
          68.80677908382283,
          0.03447364659470003
        ]
      }
    },
    {
      "type": "Feature",
      "properties": {
        "norad_id": 35493,
        "name": "FM-5",
        "group": "intelsat",
        "lat": 0.02295064510424018,
        "lon": 79.62327154521711,
        "alt_km": 35786.75965449966,
        "timestamp": "2025-12-10T05:46:13.465266+00:00",
        "meta_object_name": "FM-5",
        "meta_object_id": "2009-034A",
        "meta_epoch": "2025-12-09T12:27:37.559808",
        "meta_mean_motion": 1.00270693,
        "meta_eccentricity": 6.254e-05,
        "meta_inclination": 0.0203,
        "meta_ra_of_asc_node": 288.1902,
        "meta_arg_of_pericenter": 248.5035,
        "meta_mean_anomaly": 2.5822,
        "meta_ephemeris_type": 0,
        "meta_classification_type": "U",
        "meta_norad_cat_id": 35493,
        "meta_element_set_no": 999,
        "meta_rev_at_epoch": 4474,
        "meta_bstar": 0,
        "meta_mean_motion_dot": -1.98e-06,
        "meta_mean_motion_ddot": 0,
        "tle_line1": "1 35493U 09034A   25343.51918472 -.00000198  00000+0  00000+0 0  9991",
        "tle_line2": "2 35493   0.0203 288.1902 0000625 248.5035   2.5822  1.00270693 44747"
      },
      "geometry": {
        "type": "Point",
        "coordinates": [
          79.62327154521711,
          0.02295064510424018
        ]
      }
    },
    {
      "type": "Feature",
      "properties": {
        "norad_id": 36097,
        "name": "INTELSAT 14 (IS-14)",
        "group": "intelsat",
        "lat": 0.02078757171166374,
        "lon": 120.75748739897293,
        "alt_km": 35795.83507671107,
        "timestamp": "2025-12-10T05:46:13.465278+00:00",
        "meta_object_name": "INTELSAT 14 (IS-14)",
        "meta_object_id": "2009-064A",
        "meta_epoch": "2025-12-09T11:38:48.751008",
        "meta_mean_motion": 1.0027037,
        "meta_eccentricity": 0.0002671,
        "meta_inclination": 0.0101,
        "meta_ra_of_asc_node": 349.1482,
        "meta_arg_of_pericenter": 276.7938,
        "meta_mean_anomaly": 302.243,
        "meta_ephemeris_type": 0,
        "meta_classification_type": "U",
        "meta_norad_cat_id": 36097,
        "meta_element_set_no": 999,
        "meta_rev_at_epoch": 5870,
        "meta_bstar": 0,
        "meta_mean_motion_dot": -2.71e-06,
        "meta_mean_motion_ddot": 0,
        "tle_line1": "1 36097U 09064A   25343.48528647 -.00000271  00000+0  00000+0 0  9994",
        "tle_line2": "2 36097   0.0101 349.1482 0002671 276.7938 302.2430  1.00270370 58702"
      },
      "geometry": {
        "type": "Point",
        "coordinates": [
          120.75748739897293,
          0.02078757171166374
        ]
      }
    },
    {
      "type": "Feature",
      "properties": {
        "norad_id": 36106,
        "name": "INTELSAT 15 (IS-15)",
        "group": "intelsat",
        "lat": -0.030496606969450592,
        "lon": -109.08889618405294,
        "alt_km": 35776.34491591899,
        "timestamp": "2025-12-10T05:46:13.465290+00:00",
        "meta_object_name": "INTELSAT 15 (IS-15)",
        "meta_object_id": "2009-067A",
        "meta_epoch": "2025-12-09T18:14:38.771808",
        "meta_mean_motion": 1.00270764,
        "meta_eccentricity": 0.0002474,
        "meta_inclination": 0.0278,
        "meta_ra_of_asc_node": 286.2747,
        "meta_arg_of_pericenter": 340.9153,
        "meta_mean_anomaly": 170.3661,
        "meta_ephemeris_type": 0,
        "meta_classification_type": "U",
        "meta_norad_cat_id": 36106,
        "meta_element_set_no": 999,
        "meta_rev_at_epoch": 3932,
        "meta_bstar": 0,
        "meta_mean_motion_dot": -1.82e-06,
        "meta_mean_motion_ddot": 0,
        "tle_line1": "1 36106U 09067A   25343.76017097 -.00000182  00000+0  00000+0 0  9992",
        "tle_line2": "2 36106   0.0278 286.2747 0002474 340.9153 170.3661  1.00270764 39321"
      },
      "geometry": {
        "type": "Point",
        "coordinates": [
          -109.08889618405294,
          -0.030496606969450592
        ]
      }
    },
    {
      "type": "Feature",
      "properties": {
        "norad_id": 36131,
        "name": "DIRECTV 12",
        "group": "intelsat",
        "lat": -0.008142371362464465,
        "lon": 63.06114177985876,
        "alt_km": 35785.52712295525,
        "timestamp": "2025-12-10T05:46:13.465302+00:00",
        "meta_object_name": "DIRECTV 12",
        "meta_object_id": "2009-075A",
        "meta_epoch": "2025-12-09T10:42:05.901696",
        "meta_mean_motion": 1.00272635,
        "meta_eccentricity": 5.415e-05,
        "meta_inclination": 0.0402,
        "meta_ra_of_asc_node": 141.0164,
        "meta_arg_of_pericenter": 200.367,
        "meta_mean_anomaly": 154.8575,
        "meta_ephemeris_type": 0,
        "meta_classification_type": "U",
        "meta_norad_cat_id": 36131,
        "meta_element_set_no": 999,
        "meta_rev_at_epoch": 4465,
        "meta_bstar": 0,
        "meta_mean_motion_dot": -1.01e-06,
        "meta_mean_motion_ddot": 0,
        "tle_line1": "1 36131U 09075A   25343.44590164 -.00000101  00000+0  00000+0 0  9996",
        "tle_line2": "2 36131   0.0402 141.0164 0000541 200.3670 154.8575  1.00272635 44657"
      },
      "geometry": {
        "type": "Point",
        "coordinates": [
          63.06114177985876,
          -0.008142371362464465
        ]
      }
    },
    {
      "type": "Feature",
      "properties": {
        "norad_id": 36397,
        "name": "INTELSAT 16 (IS-16)",
        "group": "intelsat",
        "lat": 0.02409659700457599,
        "lon": 89.56426173385286,
        "alt_km": 35796.15933804615,
        "timestamp": "2025-12-10T05:46:13.465314+00:00",
        "meta_object_name": "INTELSAT 16 (IS-16)",
        "meta_object_id": "2010-006A",
        "meta_epoch": "2025-12-09T12:32:17.671200",
        "meta_mean_motion": 1.00270281,
        "meta_eccentricity": 0.00022839,
        "meta_inclination": 0.0146,
        "meta_ra_of_asc_node": 310.5057,
        "meta_arg_of_pericenter": 312.0313,
        "meta_mean_anomaly": 287.8475,
        "meta_ephemeris_type": 0,
        "meta_classification_type": "U",
        "meta_norad_cat_id": 36397,
        "meta_element_set_no": 999,
        "meta_rev_at_epoch": 5775,
        "meta_bstar": 0,
        "meta_mean_motion_dot": -2.42e-06,
        "meta_mean_motion_ddot": 0,
        "tle_line1": "1 36397U 10006A   25343.52242675 -.00000242  00000+0  00000+0 0  9992",
        "tle_line2": "2 36397   0.0146 310.5057 0002283 312.0313 287.8475  1.00270281 57756"
      },
      "geometry": {
        "type": "Point",
        "coordinates": [
          89.56426173385286,
          0.02409659700457599
        ]
      }
    },
    {
      "type": "Feature",
      "properties": {
        "norad_id": 37185,
        "name": "XM-5",
        "group": "intelsat",
        "lat": 0.05699008236664269,
        "lon": 50.55660671891489,
        "alt_km": 35788.10064373331,
        "timestamp": "2025-12-10T05:46:13.465326+00:00",
        "meta_object_name": "XM-5",
        "meta_object_id": "2010-053A",
        "meta_epoch": "2025-12-09T14:44:15.985824",
        "meta_mean_motion": 1.00269308,
        "meta_eccentricity": 0.0001556,
        "meta_inclination": 0.0634,
        "meta_ra_of_asc_node": 272.6835,
        "meta_arg_of_pericenter": 239.9307,
        "meta_mean_anomaly": 31.8615,
        "meta_ephemeris_type": 0,
        "meta_classification_type": "U",
        "meta_norad_cat_id": 37185,
        "meta_element_set_no": 999,
        "meta_rev_at_epoch": 5558,
        "meta_bstar": 0,
        "meta_mean_motion_dot": -2e-07,
        "meta_mean_motion_ddot": 0,
        "tle_line1": "1 37185U 10053A   25343.61407391 -.00000020  00000+0  00000+0 0  9992",
        "tle_line2": "2 37185   0.0634 272.6835 0001556 239.9307  31.8615  1.00269308 55588"
      },
      "geometry": {
        "type": "Point",
        "coordinates": [
          50.55660671891489,
          0.05699008236664269
        ]
      }
    }
  ]
}